{"type": "FeatureCollection", "features": [ {"type": "Feature", "properties": {"norad_id": 35018, "name": "COSMOS 2251 DEB", "group": "cosmos-2251-debris", "lat": -11.637651976392661, "lon": 115.25473103048547, "alt_km": 815.8268359499134, "timestamp": "2025-12-07T11:27:50.402899+00:00", "meta": {"OBJECT_NAME": "COSMOS 2251 DEB", "OBJECT_ID": "1993-036AGF", "EPOCH": "2025-12-06T16:12:07.194528", "MEAN_MOTION": 13.67098927, "ECCENTRICITY": 0.03484595, "INCLINATION": 73.9756, "RA_OF_ASC_NODE": 119.9692, "ARG_OF_PERICENTER": 30.4831, "MEAN_ANOMALY": 331.6039, "EPHEMERIS_TYPE": 0, "CLASSIFICATION_TYPE": "U", "NORAD_CAT_ID": 35018, "ELEMENT_SET_NO": 999, "REV_AT_EPOCH": 83103, "BSTAR": 0.0012454362, "MEAN_MOTION_DOT": 1.566e-05, "MEAN_MOTION_DDOT": 0}, "tle": {"line1": "1 35018U 93036AGF 25340.67508327  .00001566  00000+0  12454-2 0  9995", "line2": "2 35018  73.9756 119.9692 0348459  30.4831 331.6039 13.67098927831037"}}, "geometry": {"type": "Point", "coordinates": [115.25473103048547, -11.637651976392661]}}, {"type": "Feature", "properties": {"norad_id": 35020, "name": "COSMOS 2251 DEB", "group": "cosmos-2251-debris", "lat": -23.579548706895324, "lon": -158.1450641041098, "alt_km": 626.3324094277941, "timestamp": "2025-12-07T11:27:50.402910+00:00", "meta": {"OBJECT_NAME": "COSMOS 2251 DEB", "OBJECT_ID": "1993-036AGH", "EPOCH": "2025-12-06T07:40:15.826368", "MEAN_MOTION": 14.62789387, "ECCENTRICITY": 0.00908741, "INCLINATION": 74.0462, "RA_OF_ASC_NODE": 211.245, "ARG_OF_PERICENTER": 326.7927, "MEAN_ANOMALY": 32.7555, "EPHEMERIS_TYPE": 0, "CLASSIFICATION_TYPE": "U", "NORAD_CAT_ID": 35020, "ELEMENT_SET_NO": 999, "REV_AT_EPOCH": 88144, "BSTAR": 0.00031765103, "MEAN_MOTION_DOT": 1.686e-05, "MEAN_MOTION_DDOT": 0}, "tle": {"line1": "1 35020U 93036AGH 25340.31962762  .00001686  00000+0  31765-3 0  9996", "line2": "2 35020  74.0462 211.2450 0090874 326.7927  32.7555 14.62789387881441"}}, "geometry": {"type": "Point", "coordinates": [-158.1450641041098, -23.579548706895324]}}, {"type": "Feature", "properties": {"norad_id": 35022, "name": "COSMOS 2251 DEB", "group": "cosmos-2251-debris", "lat": 59.60291346950787, "lon": 1.2254826650352764, "alt_km": 695.5421194617211, "timestamp": "2025-12-07T11:27:50.402920+00:00", "meta": {"OBJECT_NAME": "COSMOS 2251 DEB", "OBJECT_ID": "1993-036AGK", "EPOCH": "2025-12-02T17:45:34.658208", "MEAN_MOTION": 14.60763876, "ECCENTRICITY": 0.00472905, "INCLINATION": 74.0262, "RA_OF_ASC_NODE": 341.0512, "ARG_OF_PERICENTER": 183.6288, "MEAN_ANOMALY": 176.4543, "EPHEMERIS_TYPE": 0, "CLASSIFICATION_TYPE": "U", "NORAD_CAT_ID": 35022, "ELEMENT_SET_NO": 999, "REV_AT_EPOCH": 58997, "BSTAR": 0.00056913021, "MEAN_MOTION_DOT": 2.791e-05, "MEAN_MOTION_DDOT": 0}, "tle": {"line1": "1 35022U 93036AGK 25336.73998447  .00002791  00000+0  56913-3 0  9998", "line2": "2 35022  74.0262 341.0512 0047290 183.6288 176.4543 14.60763876589975"}}, "geometry": {"type": "Point", "coordinates": [1.2254826650352764, 59.60291346950787]}}, {"type": "Feature", "properties": {"norad_id": 35023, "name": "COSMOS 2251 DEB", "group": "cosmos-2251-debris", "lat": -44.81430473034367, "lon": -153.32449607500652, "alt_km": 565.8309607632236, "timestamp": "2025-12-07T11:27:50.402930+00:00", "meta": {"OBJECT_NAME": "COSMOS 2251 DEB", "OBJECT_ID": "1993-036AGL", "EPOCH": "2025-12-06T22:53:56.213376", "MEAN_MOTION": 14.94818826, "ECCENTRICITY": 0.00342464, "INCLINATION": 74.0381, "RA_OF_ASC_NODE": 224.2517, "ARG_OF_PERICENTER": 303.1336, "MEAN_ANOMALY": 73.5274, "EPHEMERIS_TYPE": 0, "CLASSIFICATION_TYPE": "U", "NORAD_CAT_ID": 35023, "ELEMENT_SET_NO": 999, "REV_AT_EPOCH": 88193, "BSTAR": 0.0024827367, "MEAN_MOTION_DOT": 0.00027412, "MEAN_MOTION_DDOT": 0}, "tle": {"line1": "1 35023U 93036AGL 25340.95412284  .00027412  00000+0  24827-2 0  9993", "line2": "2 35023  74.0381 224.2517 0034246 303.1336  73.5274 14.94818826881937"}}, "geometry": {"type": "Point", "coordinates": [-153.32449607500652, -44.81430473034367]}}, {"type": "Feature", "properties": {"norad_id": 35025, "name": "COSMOS 2251 DEB", "group": "cosmos-2251-debris", "lat": 73.92711855383256, "lon": 163.98383172511546, "alt_km": 658.0671800790815, "timestamp": "2025-12-07T11:27:50.402940+00:00", "meta": {"OBJECT_NAME": "COSMOS 2251 DEB", "OBJECT_ID": "1993-036AGN", "EPOCH": "2025-12-05T13:24:32.861952", "MEAN_MOTION": 14.72652613, "ECCENTRICITY": 0.00847967, "INCLINATION": 73.9386, "RA_OF_ASC_NODE": 76.9946, "ARG_OF_PERICENTER": 351.3968, "MEAN_ANOMALY": 8.5744, "EPHEMERIS_TYPE": 0, "CLASSIFICATION_TYPE": "U", "NORAD_CAT_ID": 35025, "ELEMENT_SET_NO": 999, "REV_AT_EPOCH": 88537, "BSTAR": 0.00071609127, "MEAN_MOTION_DOT": 4.797e-05, "MEAN_MOTION_DDOT": 0}, "tle": {"line1": "1 35025U 93036AGN 25339.55871368  .00004797  00000+0  71609-3 0  9993", "line2": "2 35025  73.9386  76.9946 0084796 351.3968   8.5744 14.72652613885379"}}, "geometry": {"type": "Point", "coordinates": [163.98383172511546, 73.92711855383256]}}, {"type": "Feature", "properties": {"norad_id": 35026, "name": "COSMOS 2251 DEB", "group": "cosmos-2251-debris", "lat": -38.6578997284832, "lon": -44.49102144326653, "alt_km": 752.3732029091298, "timestamp": "2025-12-07T11:27:50.402950+00:00", "meta": {"OBJECT_NAME": "COSMOS 2251 DEB", "OBJECT_ID": "1993-036AGP", "EPOCH": "2025-12-06T07:51:48.078720", "MEAN_MOTION": 14.53617344, "ECCENTRICITY": 0.00822532, "INCLINATION": 74.0464, "RA_OF_ASC_NODE": 330.9073, "ARG_OF_PERICENTER": 86.1829, "MEAN_ANOMALY": 338.5159, "EPHEMERIS_TYPE": 0, "CLASSIFICATION_TYPE": "U", "NORAD_CAT_ID": 35026, "ELEMENT_SET_NO": 999, "REV_AT_EPOCH": 88050, "BSTAR": 0.00012460817, "MEAN_MOTION_DOT": 5.15e-06, "MEAN_MOTION_DDOT": 0}, "tle": {"line1": "1 35026U 93036AGP 25340.32763980  .00000515  00000+0  12461-3 0  9996", "line2": "2 35026  74.0464 330.9073 0082253  86.1829 338.5159 14.53617344880505"}}, "geometry": {"type": "Point", "coordinates": [-44.49102144326653, -38.6578997284832]}}, {"type": "Feature", "properties": {"norad_id": 35028, "name": "COSMOS 2251 DEB", "group": "cosmos-2251-debris", "lat": 15.825333097906523, "lon": -74.38066590859013, "alt_km": 659.5379951368786, "timestamp": "2025-12-07T11:27:50.402961+00:00", "meta": {"OBJECT_NAME": "COSMOS 2251 DEB", "OBJECT_ID": "1993-036AGR", "EPOCH": "2025-12-06T14:45:20.784960", "MEAN_MOTION": 14.56559763, "ECCENTRICITY": 0.00822588, "INCLINATION": 74.0381, "RA_OF_ASC_NODE": 282.6027, "ARG_OF_PERICENTER": 57.9846, "MEAN_ANOMALY": 116.6366, "EPHEMERIS_TYPE": 0, "CLASSIFICATION_TYPE": "U", "NORAD_CAT_ID": 35028, "ELEMENT_SET_NO": 999, "REV_AT_EPOCH": 88196, "BSTAR": 0.00020909724, "MEAN_MOTION_DOT": 9.44e-06, "MEAN_MOTION_DDOT": 0}, "tle": {"line1": "1 35028U 93036AGR 25340.61482390  .00000944  00000+0  20910-3 0  9997", "line2": "2 35028  74.0381 282.6027 0082258  57.9846 116.6366 14.56559763881966"}}, "geometry": {"type": "Point", "coordinates": [-74.38066590859013, 15.825333097906523]}}, {"type": "Feature", "properties": {"norad_id": 35031, "name": "COSMOS 2251 DEB", "group": "cosmos-2251-debris", "lat": -73.5104861860633, "lon": -166.2494885168615, "alt_km": 770.9465454250612, "timestamp": "2025-12-07T11:27:50.402971+00:00", "meta": {"OBJECT_NAME": "COSMOS 2251 DEB", "OBJECT_ID": "1993-036AGU", "EPOCH": "2025-12-06T02:28:30.271296", "MEAN_MOTION": 14.38280865, "ECCENTRICITY": 0.00185684, "INCLINATION": 74.0385, "RA_OF_ASC_NODE": 271.4894, "ARG_OF_PERICENTER": 6.3258, "MEAN_ANOMALY": 353.8127, "EPHEMERIS_TYPE": 0, "CLASSIFICATION_TYPE": "U", "NORAD_CAT_ID": 35031, "ELEMENT_SET_NO": 999, "REV_AT_EPOCH": 65188, "BSTAR": 0.00033805858, "MEAN_MOTION_DOT": 1.004e-05, "MEAN_MOTION_DDOT": 0}, "tle": {"line1": "1 35031U 93036AGU 25340.10312814  .00001004  00000+0  33806-3 0  9994", "line2": "2 35031  74.0385 271.4894 0018568   6.3258 353.8127 14.38280865651880"}}, "geometry": {"type": "Point", "coordinates": [-166.2494885168615, -73.5104861860633]}}, {"type": "Feature", "properties": {"norad_id": 35032, "name": "COSMOS 2251 DEB", "group": "cosmos-2251-debris", "lat": 62.25690605501005, "lon": 163.98590657715607, "alt_km": 712.7033705857566, "timestamp": "2025-12-07T11:27:50.402981+00:00", "meta": {"OBJECT_NAME": "COSMOS 2251 DEB", "OBJECT_ID": "1993-036AGV", "EPOCH": "2025-12-06T20:57:06.952032", "MEAN_MOTION": 14.58651101, "ECCENTRICITY": 0.00687525, "INCLINATION": 73.8514, "RA_OF_ASC_NODE": 18.577, "ARG_OF_PERICENTER": 230.8542, "MEAN_ANOMALY": 308.7404, "EPHEMERIS_TYPE": 0, "CLASSIFICATION_TYPE": "U", "NORAD_CAT_ID": 35032, "ELEMENT_SET_NO": 999, "REV_AT_EPOCH": 87588, "BSTAR": 0.0016314058, "MEAN_MOTION_DOT": 7.832e-05, "MEAN_MOTION_DDOT": 0}, "tle": {"line1": "1 35032U 93036AGV 25340.87299713  .00007832  00000+0  16314-2 0  9990", "line2": "2 35032  73.8514  18.5770 0068752 230.8542 308.7404 14.58651101875887"}}, "geometry": {"type": "Point", "coordinates": [163.98590657715607, 62.25690605501005]}}, {"type": "Feature", "properties": {"norad_id": 35033, "name": "COSMOS 2251 DEB", "group": "cosmos-2251-debris", "lat": -68.55430591146192, "lon": 139.65876598650362, "alt_km": 719.562892711906, "timestamp": "2025-12-07T11:27:50.402991+00:00", "meta": {"OBJECT_NAME": "COSMOS 2251 DEB", "OBJECT_ID": "1993-036AGW", "EPOCH": "2025-12-06T07:40:42.682944", "MEAN_MOTION": 14.50882288, "ECCENTRICITY": 0.00143551, "INCLINATION": 74.0259, "RA_OF_ASC_NODE": 188.6562, "ARG_OF_PERICENTER": 295.5184, "MEAN_ANOMALY": 64.4492, "EPHEMERIS_TYPE": 0, "CLASSIFICATION_TYPE": "U", "NORAD_CAT_ID": 35033, "ELEMENT_SET_NO": 999, "REV_AT_EPOCH": 65834, "BSTAR": 0.0011813512, "MEAN_MOTION_DOT": 4.642e-05, "MEAN_MOTION_DDOT": 0}, "tle": {"line1": "1 35033U 93036AGW 25340.31993846  .00004642  00000+0  11814-2 0  9994", "line2": "2 35033  74.0259 188.6562 0014355 295.5184  64.4492 14.50882288658342"}}, "geometry": {"type": "Point", "coordinates": [139.65876598650362, -68.55430591146192]}}]}